SL-16 R/B               
1 22285U 92093B   25302.36249571 -.00000158  00000+0 -56446-4 0  9995
2 22285  71.0202 279.9504 0003606 182.7411 177.3693 14.15418183694571
COSMOS 2228             
1 22286U 92094A   25302.49535928  .00002754  00000+0  23984-3 0  9997
2 22286  82.5207   2.8585 0018712  28.3167 331.9067 14.96433557756431
SL-16 R/B               
1 22566U 93016B   25302.53120647 -.00000150  00000+0 -52387-4 0  9996
2 22566  71.0056 130.6519 0009736 176.5602 183.5589 14.15279856683610
COSMOS 2242             
1 22626U 93024A   25302.35596272  .00002882  00000+0  25513-3 0  9995
2 22626  82.5218  32.2497 0017101  31.6278 328.5967 14.95832556760753
SL-16 R/B               
1 22803U 93059B   25302.40643199  .00000018  00000+0  32752-4 0  9990
2 22803  70.9893 287.9720 0015396  44.2388 315.9963 14.17202759660939
ARIANE 40 R/B           
1 22830U 93061H   25302.48289382  .00000334  00000+0  13843-3 0  9991
2 22830  98.5129   8.8072 0009838 316.7999  43.2413 14.32759595675317
COSMOS 2278             
1 23087U 94023A   25302.47393984 -.00000093  00000+0 -24094-4 0  9993
2 23087  71.0514  89.6175 0010715 237.3727 122.6362 14.14330978626254
SL-16 R/B               
1 23088U 94023B   25302.50985402  .00000212  00000+0  13389-3 0  9995
2 23088  71.0015 346.3732 0002329 181.7847 178.3268 14.14990842627537
SL-16 R/B               
1 23343U 94074B   25302.35910713  .00000706  00000+0  10177-3 0  9991
2 23343  97.7264 333.4145 0005233 294.7123  75.8302 14.79212486667835
SL-16 R/B               
1 23405U 94077B   25302.33059922 -.00000132  00000+0 -42971-4 0  9990
2 23405  70.9814 268.8367 0003441 319.0999  40.9865 14.15538687597648
SL-16 R/B               
1 23705U 95058B   25302.47242446  .00000297  00000+0  17608-3 0  9991
2 23705  71.0193  95.7395 0014055 312.8728  47.1214 14.15469337549284
