CCSDS_OMM_VERS = 2.0
CREATION_DATE  = 
ORIGINATOR     = 

OBJECT_NAME    = SL-16 R/B
OBJECT_ID      = 1992-093B
CENTER_NAME    = EARTH
REF_FRAME      = TEME
TIME_SYSTEM    = UTC
MEAN_ELEMENT_THEORY = SGP/SGP4

EPOCH          = 2025-10-29T08:41:59.629344
MEAN_MOTION    = 14.15418183
ECCENTRICITY   = .0003606
INCLINATION    = 71.0202
RA_OF_ASC_NODE = 279.9504
ARG_OF_PERICENTER = 182.7411
MEAN_ANOMALY   = 177.3693

EPHEMERIS_TYPE = 0
CLASSIFICATION_TYPE = U
NORAD_CAT_ID   = 22285
ELEMENT_SET_NO = 999
REV_AT_EPOCH   = 69457
BSTAR          = -.56446E-4
MEAN_MOTION_DOT = -.158E-5
MEAN_MOTION_DDOT = 0

CCSDS_OMM_VERS = 2.0
CREATION_DATE  = 
ORIGINATOR     = 

OBJECT_NAME    = COSMOS 2228
OBJECT_ID      = 1992-094A
CENTER_NAME    = EARTH
REF_FRAME      = TEME
TIME_SYSTEM    = UTC
MEAN_ELEMENT_THEORY = SGP/SGP4

EPOCH          = 2025-10-29T11:53:19.041792
MEAN_MOTION    = 14.96433557
ECCENTRICITY   = .0018712
INCLINATION    = 82.5207
RA_OF_ASC_NODE = 2.8585
ARG_OF_PERICENTER = 28.3167
MEAN_ANOMALY   = 331.9067

EPHEMERIS_TYPE = 0
CLASSIFICATION_TYPE = U
NORAD_CAT_ID   = 22286
ELEMENT_SET_NO = 999
REV_AT_EPOCH   = 75643
BSTAR          = .23984E-3
MEAN_MOTION_DOT = .2754E-4
MEAN_MOTION_DDOT = 0

CCSDS_OMM_VERS = 2.0
CREATION_DATE  = 
ORIGINATOR     = 

OBJECT_NAME    = SL-16 R/B
OBJECT_ID      = 1993-016B
CENTER_NAME    = EARTH
REF_FRAME      = TEME
TIME_SYSTEM    = UTC
MEAN_ELEMENT_THEORY = SGP/SGP4

EPOCH          = 2025-10-29T12:44:56.239008
MEAN_MOTION    = 14.15279856
ECCENTRICITY   = .0009736
INCLINATION    = 71.0056
RA_OF_ASC_NODE = 130.6519
ARG_OF_PERICENTER = 176.5602
MEAN_ANOMALY   = 183.5589

EPHEMERIS_TYPE = 0
CLASSIFICATION_TYPE = U
NORAD_CAT_ID   = 22566
ELEMENT_SET_NO = 999
REV_AT_EPOCH   = 68361
BSTAR          = -.52387E-4
MEAN_MOTION_DOT = -.15E-5
MEAN_MOTION_DDOT = 0

CCSDS_OMM_VERS = 2.0
CREATION_DATE  = 
ORIGINATOR     = 

OBJECT_NAME    = COSMOS 2242
OBJECT_ID      = 1993-024A
CENTER_NAME    = EARTH
REF_FRAME      = TEME
TIME_SYSTEM    = UTC
MEAN_ELEMENT_THEORY = SGP/SGP4

EPOCH          = 2025-10-29T08:32:35.179008
MEAN_MOTION    = 14.95832556
ECCENTRICITY   = .0017101
INCLINATION    = 82.5218
RA_OF_ASC_NODE = 32.2497
ARG_OF_PERICENTER = 31.6278
MEAN_ANOMALY   = 328.5967

EPHEMERIS_TYPE = 0
CLASSIFICATION_TYPE = U
NORAD_CAT_ID   = 22626
ELEMENT_SET_NO = 999
REV_AT_EPOCH   = 76075
BSTAR          = .25513E-3
MEAN_MOTION_DOT = .2882E-4
MEAN_MOTION_DDOT = 0

CCSDS_OMM_VERS = 2.0
CREATION_DATE  = 
ORIGINATOR     = 

OBJECT_NAME    = SL-16 R/B
OBJECT_ID      = 1993-059B
CENTER_NAME    = EARTH
REF_FRAME      = TEME
TIME_SYSTEM    = UTC
MEAN_ELEMENT_THEORY = SGP/SGP4

EPOCH          = 2025-10-29T09:45:15.723936
MEAN_MOTION    = 14.17202759
ECCENTRICITY   = .0015396
INCLINATION    = 70.9893
RA_OF_ASC_NODE = 287.9720
ARG_OF_PERICENTER = 44.2388
MEAN_ANOMALY   = 315.9963

EPHEMERIS_TYPE = 0
CLASSIFICATION_TYPE = U
NORAD_CAT_ID   = 22803
ELEMENT_SET_NO = 999
REV_AT_EPOCH   = 66093
BSTAR          = .32752E-4
MEAN_MOTION_DOT = .18E-6
MEAN_MOTION_DDOT = 0

CCSDS_OMM_VERS = 2.0
CREATION_DATE  = 
ORIGINATOR     = 

OBJECT_NAME    = ARIANE 40 R/B
OBJECT_ID      = 1993-061H
CENTER_NAME    = EARTH
REF_FRAME      = TEME
TIME_SYSTEM    = UTC
MEAN_ELEMENT_THEORY = SGP/SGP4

EPOCH          = 2025-10-29T11:35:22.026048
MEAN_MOTION    = 14.32759595
ECCENTRICITY   = .0009838
INCLINATION    = 98.5129
RA_OF_ASC_NODE = 8.8072
ARG_OF_PERICENTER = 316.7999
MEAN_ANOMALY   = 43.2413

EPHEMERIS_TYPE = 0
CLASSIFICATION_TYPE = U
NORAD_CAT_ID   = 22830
ELEMENT_SET_NO = 999
REV_AT_EPOCH   = 67531
BSTAR          = .13843E-3
MEAN_MOTION_DOT = .334E-5
MEAN_MOTION_DDOT = 0

CCSDS_OMM_VERS = 2.0
CREATION_DATE  = 
ORIGINATOR     = 

OBJECT_NAME    = COSMOS 2278
OBJECT_ID      = 1994-023A
CENTER_NAME    = EARTH
REF_FRAME      = TEME
TIME_SYSTEM    = UTC
MEAN_ELEMENT_THEORY = SGP/SGP4

EPOCH          = 2025-10-29T11:22:28.402176
MEAN_MOTION    = 14.14330978
ECCENTRICITY   = .0010715
INCLINATION    = 71.0514
RA_OF_ASC_NODE = 89.6175
ARG_OF_PERICENTER = 237.3727
MEAN_ANOMALY   = 122.6362

EPHEMERIS_TYPE = 0
CLASSIFICATION_TYPE = U
NORAD_CAT_ID   = 23087
ELEMENT_SET_NO = 999
REV_AT_EPOCH   = 62625
BSTAR          = -.24094E-4
MEAN_MOTION_DOT = -.93E-6
MEAN_MOTION_DDOT = 0

CCSDS_OMM_VERS = 2.0
CREATION_DATE  = 
ORIGINATOR     = 

OBJECT_NAME    = SL-16 R/B
OBJECT_ID      = 1994-023B
CENTER_NAME    = EARTH
REF_FRAME      = TEME
TIME_SYSTEM    = UTC
MEAN_ELEMENT_THEORY = SGP/SGP4

EPOCH          = 2025-10-29T12:14:11.387328
MEAN_MOTION    = 14.14990842
ECCENTRICITY   = .0002329
INCLINATION    = 71.0015
RA_OF_ASC_NODE = 346.3732
ARG_OF_PERICENTER = 181.7847
MEAN_ANOMALY   = 178.3268

EPHEMERIS_TYPE = 0
CLASSIFICATION_TYPE = U
NORAD_CAT_ID   = 23088
ELEMENT_SET_NO = 999
REV_AT_EPOCH   = 62753
BSTAR          = .13389E-3
MEAN_MOTION_DOT = .212E-5
MEAN_MOTION_DDOT = 0

CCSDS_OMM_VERS = 2.0
CREATION_DATE  = 
ORIGINATOR     = 

OBJECT_NAME    = SL-16 R/B
OBJECT_ID      = 1994-074B
CENTER_NAME    = EARTH
REF_FRAME      = TEME
TIME_SYSTEM    = UTC
MEAN_ELEMENT_THEORY = SGP/SGP4

EPOCH          = 2025-10-29T08:37:06.856032
MEAN_MOTION    = 14.79212486
ECCENTRICITY   = .0005233
INCLINATION    = 97.7264
RA_OF_ASC_NODE = 333.4145
ARG_OF_PERICENTER = 294.7123
MEAN_ANOMALY   = 75.8302

EPHEMERIS_TYPE = 0
CLASSIFICATION_TYPE = U
NORAD_CAT_ID   = 23343
ELEMENT_SET_NO = 999
REV_AT_EPOCH   = 66783
BSTAR          = .10177E-3
MEAN_MOTION_DOT = .706E-5
MEAN_MOTION_DDOT = 0

CCSDS_OMM_VERS = 2.0
CREATION_DATE  = 
ORIGINATOR     = 

OBJECT_NAME    = SL-16 R/B
OBJECT_ID      = 1994-077B
CENTER_NAME    = EARTH
REF_FRAME      = TEME
TIME_SYSTEM    = UTC
MEAN_ELEMENT_THEORY = SGP/SGP4

EPOCH          = 2025-10-29T07:56:03.772608
MEAN_MOTION    = 14.15538687
ECCENTRICITY   = .0003441
INCLINATION    = 70.9814
RA_OF_ASC_NODE = 268.8367
ARG_OF_PERICENTER = 319.0999
MEAN_ANOMALY   = 40.9865

EPHEMERIS_TYPE = 0
CLASSIFICATION_TYPE = U
NORAD_CAT_ID   = 23405
ELEMENT_SET_NO = 999
REV_AT_EPOCH   = 59764
BSTAR          = -.42971E-4
MEAN_MOTION_DOT = -.132E-5
MEAN_MOTION_DDOT = 0

CCSDS_OMM_VERS = 2.0
CREATION_DATE  = 
ORIGINATOR     = 

OBJECT_NAME    = SL-16 R/B
OBJECT_ID      = 1995-058B
CENTER_NAME    = EARTH
REF_FRAME      = TEME
TIME_SYSTEM    = UTC
MEAN_ELEMENT_THEORY = SGP/SGP4

EPOCH          = 2025-10-29T11:20:17.473344
MEAN_MOTION    = 14.15469337
ECCENTRICITY   = .0014055
INCLINATION    = 71.0193
RA_OF_ASC_NODE = 95.7395
ARG_OF_PERICENTER = 312.8728
MEAN_ANOMALY   = 47.1214

EPHEMERIS_TYPE = 0
CLASSIFICATION_TYPE = U
NORAD_CAT_ID   = 23705
ELEMENT_SET_NO = 999
REV_AT_EPOCH   = 54928
BSTAR          = .17608E-3
MEAN_MOTION_DOT = .297E-5
MEAN_MOTION_DDOT = 0

